{
  "type": "FeatureCollection",
  "features": [
    {
      "type": "Feature",
      "properties": {
        "norad_id": 26766,
        "name": "INTELSAT 10 (IS-10)",
        "group": "intelsat",
        "lat": 7.607809834754837,
        "lon": 179.46751956321734,
        "alt_km": 36131.28364603832,
        "timestamp": "2025-12-09T20:37:08.949244+00:00",
        "meta_object_name": "INTELSAT 10 (IS-10)",
        "meta_object_id": "2001-019A",
        "meta_epoch": "2025-12-09T15:29:15.575424",
        "meta_mean_motion": 0.99078983,
        "meta_eccentricity": 0.00078318,
        "meta_inclination": 8.6227,
        "meta_ra_of_asc_node": 61.1879,
        "meta_arg_of_pericenter": 222.8476,
        "meta_mean_anomaly": 178.976,
        "meta_ephemeris_type": 0,
        "meta_classification_type": "U",
        "meta_norad_cat_id": 26766,
        "meta_element_set_no": 999,
        "meta_rev_at_epoch": 4370,
        "meta_bstar": 0,
        "meta_mean_motion_dot": -2.84e-06,
        "meta_mean_motion_ddot": 0,
        "tle_line1": "1 26766U 01019A   25343.64531916 -.00000284  00000+0  00000+0 0  9993",
        "tle_line2": "2 26766   8.6227  61.1879 0007831 222.8476 178.9760  0.99078983 43701"
      },
      "geometry": {
        "type": "Point",
        "coordinates": [
          179.46751956321734,
          7.607809834754837
        ]
      }
    },
    {
      "type": "Feature",
      "properties": {
        "norad_id": 26900,
        "name": "INTELSAT 902 (IS-902)",
        "group": "intelsat",
        "lat": -5.612586974922228,
        "lon": -22.039761723448425,
        "alt_km": 35787.6078916239,
        "timestamp": "2025-12-09T20:37:08.949267+00:00",
        "meta_object_name": "INTELSAT 902 (IS-902)",
        "meta_object_id": "2001-039A",
        "meta_epoch": "2025-12-01T16:59:59.311968",
        "meta_mean_motion": 1.00270327,
        "meta_eccentricity": 0.00043097,
        "meta_inclination": 5.6187,
        "meta_ra_of_asc_node": 74.2002,
        "meta_arg_of_pericenter": 175.119,
        "meta_mean_anomaly": 26.3816,
        "meta_ephemeris_type": 0,
        "meta_classification_type": "U",
        "meta_norad_cat_id": 26900,
        "meta_element_set_no": 999,
        "meta_rev_at_epoch": 8871,
        "meta_bstar": 0,
        "meta_mean_motion_dot": -2.63e-06,
        "meta_mean_motion_ddot": 0,
        "tle_line1": "1 26900U 01039A   25335.70832537 -.00000263  00000+0  00000+0 0  9993",
        "tle_line2": "2 26900   5.6187  74.2002 0004309 175.1190  26.3816  1.00270327 88713"
      },
      "geometry": {
        "type": "Point",
        "coordinates": [
          -22.039761723448425,
          -5.612586974922228
        ]
      }
    },
    {
      "type": "Feature",
      "properties": {
        "norad_id": 27380,
        "name": "INTELSAT 904 (IS-904)",
        "group": "intelsat",
        "lat": -6.222358207792617,
        "lon": -3.2733297966841417,
        "alt_km": 35784.37402558183,
        "timestamp": "2025-12-09T20:37:08.949283+00:00",
        "meta_object_name": "INTELSAT 904 (IS-904)",
        "meta_object_id": "2002-007A",
        "meta_epoch": "2025-12-09T11:42:40.881024",
        "meta_mean_motion": 1.00273083,
        "meta_eccentricity": 0.00015141,
        "meta_inclination": 6.4469,
        "meta_ra_of_asc_node": 71.4685,
        "meta_arg_of_pericenter": 215.3872,
        "meta_mean_anomaly": 295.774,
        "meta_ephemeris_type": 0,
        "meta_classification_type": "U",
        "meta_norad_cat_id": 27380,
        "meta_element_set_no": 999,
        "meta_rev_at_epoch": 4986,
        "meta_bstar": 0,
        "meta_mean_motion_dot": -2.24e-06,
        "meta_mean_motion_ddot": 0,
        "tle_line1": "1 27380U 02007A   25343.48797316 -.00000224  00000+0  00000+0 0  9998",
        "tle_line2": "2 27380   6.4469  71.4685 0001514 215.3872 295.7740  1.00273083 49866"
      },
      "geometry": {
        "type": "Point",
        "coordinates": [
          -3.2733297966841417,
          -6.222358207792617
        ]
      }
    },
    {
      "type": "Feature",
      "properties": {
        "norad_id": 27426,
        "name": "DIRECTV 5 (TEMPO 1)",
        "group": "intelsat",
        "lat": -1.5451470390988342,
        "lon": -82.03623454322427,
        "alt_km": 35769.67683841518,
        "timestamp": "2025-12-09T20:37:08.949296+00:00",
        "meta_object_name": "DIRECTV 5 (TEMPO 1)",
        "meta_object_id": "2002-023A",
        "meta_epoch": "2025-12-09T12:28:39.654624",
        "meta_mean_motion": 1.00272054,
        "meta_eccentricity": 0.00039085,
        "meta_inclination": 4.3941,
        "meta_ra_of_asc_node": 77.689,
        "meta_arg_of_pericenter": 200.7432,
        "meta_mean_anomaly": 237.1271,
        "meta_ephemeris_type": 0,
        "meta_classification_type": "U",
        "meta_norad_cat_id": 27426,
        "meta_element_set_no": 999,
        "meta_rev_at_epoch": 8622,
        "meta_bstar": 0,
        "meta_mean_motion_dot": -5.5e-07,
        "meta_mean_motion_ddot": 0,
        "tle_line1": "1 27426U 02023A   25343.51990341 -.00000055  00000+0  00000+0 0  9996",
        "tle_line2": "2 27426   4.3941  77.6890 0003908 200.7432 237.1271  1.00272054 86221"
      },
      "geometry": {
        "type": "Point",
        "coordinates": [
          -82.03623454322427,
          -1.5451470390988342
        ]
      }
    },
    {
      "type": "Feature",
      "properties": {
        "norad_id": 27438,
        "name": "INTELSAT 905 (IS-905)",
        "group": "intelsat",
        "lat": 0.10869763548059713,
        "lon": -109.07083087165218,
        "alt_km": 35774.275330390185,
        "timestamp": "2025-12-09T20:37:08.949308+00:00",
        "meta_object_name": "INTELSAT 905 (IS-905)",
        "meta_object_id": "2002-027A",
        "meta_epoch": "2025-12-09T11:59:00.274272",
        "meta_mean_motion": 1.00271823,
        "meta_eccentricity": 0.00028473,
        "meta_inclination": 6.2778,
        "meta_ra_of_asc_node": 72.0923,
        "meta_arg_of_pericenter": 191.5585,
        "meta_mean_anomaly": 217.3829,
        "meta_ephemeris_type": 0,
        "meta_classification_type": "U",
        "meta_norad_cat_id": 27438,
        "meta_element_set_no": 999,
        "meta_rev_at_epoch": 4946,
        "meta_bstar": 0,
        "meta_mean_motion_dot": 9.5e-07,
        "meta_mean_motion_ddot": 0,
        "tle_line1": "1 27438U 02027A   25343.49930873  .00000095  00000+0  00000+0 0  9997",
        "tle_line2": "2 27438   6.2778  72.0923 0002847 191.5585 217.3829  1.00271823 49463"
      },
      "geometry": {
        "type": "Point",
        "coordinates": [
          -109.07083087165218,
          0.10869763548059713
        ]
      }
    },
    {
      "type": "Feature",
      "properties": {
        "norad_id": 27445,
        "name": "GALAXY 3C (G-3C)",
        "group": "intelsat",
        "lat": -1.7781299805749489,
        "lon": -66.76101259132628,
        "alt_km": 35788.54913677811,
        "timestamp": "2025-12-09T20:37:08.949320+00:00",
        "meta_object_name": "GALAXY 3C (G-3C)",
        "meta_object_id": "2002-030A",
        "meta_epoch": "2025-12-09T12:22:29.345088",
        "meta_mean_motion": 1.00271037,
        "meta_eccentricity": 0.00011391,
        "meta_inclination": 3.2564,
        "meta_ra_of_asc_node": 80.5364,
        "meta_arg_of_pericenter": 97.8512,
        "meta_mean_anomaly": 350.8775,
        "meta_ephemeris_type": 0,
        "meta_classification_type": "U",
        "meta_norad_cat_id": 27445,
        "meta_element_set_no": 999,
        "meta_rev_at_epoch": 4459,
        "meta_bstar": 0,
        "meta_mean_motion_dot": -1.5e-06,
        "meta_mean_motion_ddot": 0,
        "tle_line1": "1 27445U 02030A   25343.51561742 -.00000150  00000+0  00000+0 0  9990",
        "tle_line2": "2 27445   3.2564  80.5364 0001139  97.8512 350.8775  1.00271037 44594"
      },
      "geometry": {
        "type": "Point",
        "coordinates": [
          -66.76101259132628,
          -1.7781299805749489
        ]
      }
    },
    {
      "type": "Feature",
      "properties": {
        "norad_id": 27513,
        "name": "INTELSAT 906 (IS-906)",
        "group": "intelsat",
        "lat": 1.5726178204186803,
        "lon": 92.18719835098898,
        "alt_km": 35811.740316851974,
        "timestamp": "2025-12-09T20:37:08.949332+00:00",
        "meta_object_name": "INTELSAT 906 (IS-906)",
        "meta_object_id": "2002-041A",
        "meta_epoch": "2025-12-09T08:44:29.355360",
        "meta_mean_motion": 1.00270946,
        "meta_eccentricity": 0.0006101,
        "meta_inclination": 5.3202,
        "meta_ra_of_asc_node": 75.2716,
        "meta_arg_of_pericenter": 190.1287,
        "meta_mean_anomaly": 8.2128,
        "meta_ephemeris_type": 0,
        "meta_classification_type": "U",
        "meta_norad_cat_id": 27513,
        "meta_element_set_no": 999,
        "meta_rev_at_epoch": 8512,
        "meta_bstar": 0,
        "meta_mean_motion_dot": 1.4e-07,
        "meta_mean_motion_ddot": 0,
        "tle_line1": "1 27513U 02041A   25343.36422865  .00000014  00000+0  00000+0 0  9991",
        "tle_line2": "2 27513   5.3202  75.2716 0006101 190.1287   8.2128  1.00270946 85122"
      },
      "geometry": {
        "type": "Point",
        "coordinates": [
          92.18719835098898,
          1.5726178204186803
        ]
      }
    }
  ]
}